NORAD_CAT_ID,OBJECT_NAME,OBJECT_TYPE,EPOCH,MEAN_MOTION,ECCENTRICITY,INCLINATION,RA_OF_ASC_NODE,ARG_OF_PERICENTER,MEAN_ANOMALY,BSTAR,MEAN_MOTION_DOT,MEAN_MOTION_DDOT,TLE_LINE0,TLE_LINE1,TLE_LINE2,SEMIMAJOR_AXIS,PERIOD,APOGEE,PERIGEE,DECAYED
55667.0,STARLINK-5456,PAYLOAD,2023-06-12 11:26:55,15.69937295,0.0003325,69.9979,187.4208,268.5316,91.5499,-2.2849e-05,-2.961e-05,0.0,0 STARLINK-5456,1 55667U 23021AR  23163.47702551 -.00002961  00000-0 -22849-4 0  9992,2 55667  69.9979 187.4208 0003325 268.5316  91.5499 15.69937295 18859,6737.213,91.723,361.319,356.838,0.0
55667.0,STARLINK-5456,PAYLOAD,2023-06-12 19:05:41,15.69910073,0.000273,69.9987,186.5247,271.6757,88.4126,1.1143e-05,1.127e-05,0.0,0 STARLINK-5456,1 55667U 23021AR  23163.79562263  .00001127  00000-0  11143-4 0  9997,2 55667  69.9987 186.5247 0002730 271.6757  88.4126 15.69910073 18592,6737.291,91.725,360.996,357.317,0.0
55667.0,STARLINK-5456,PAYLOAD,2023-06-13 01:12:41,15.69919829,0.0003617,69.9982,185.809,267.1484,92.9298,1.0716e-06,-8.4e-07,0.0,0 STARLINK-5456,1 55667U 23021AR  23164.05048308 -.00000084  00000-0  10716-5 0  9994,2 55667  69.9982 185.8090 0003617 267.1484  92.9298 15.69919829 18630,6737.263,91.724,361.565,356.691,0.0
55667.0,STARLINK-5456,PAYLOAD,2023-06-13 04:16:11,15.69926373,0.0003346,69.9986,185.4517,267.7385,92.3427,6.3286e-06,5.48e-06,0.0,0 STARLINK-5456,1 55667U 23021AR  23164.17791259  .00000548  00000-0  63286-5 0  9991,2 55667  69.9986 185.4517 0003346 267.7385  92.3427 15.69926373 18651,6737.245,91.724,361.364,356.855,0.0
55667.0,STARLINK-5456,PAYLOAD,2023-06-14 00:08:57,15.69921822,0.0002767,69.9994,183.1241,243.6955,116.3957,2.3726e-05,2.641e-05,0.0,0 STARLINK-5456,1 55667U 23021AR  23165.00622557  .00002641  00000-0  23726-4 0  9998,2 55667  69.9994 183.1241 0002767 243.6955 116.3957 15.69921822 19099,6737.258,91.724,360.987,357.258,0.0
55667.0,STARLINK-5456,PAYLOAD,2023-06-14 18:30:00,15.69909563,0.0003047,69.9977,180.9732,279.1242,80.9609,1.8642e-05,2.028e-05,0.0,0 STARLINK-5456,1 55667U 23021AR  23165.77083980  .00002028  00000-0  18642-4 0  9993,2 55667  69.9977 180.9732 0003047 279.1242  80.9609 15.69909563 18902,6737.293,91.725,361.211,357.105,0.0
55667.0,STARLINK-5456,PAYLOAD,2023-06-15 02:08:45,15.69925452,0.0003471,69.9974,180.0778,273.6552,86.4247,4.0775e-06,2.77e-06,0.0,0 STARLINK-5456,1 55667U 23021AR  23166.08941506  .00000277  00000-0  40775-5 0  9992,2 55667  69.9974 180.0778 0003471 273.6552  86.4247 15.69925452 18953,6737.247,91.724,361.451,356.774,0.0
55667.0,STARLINK-5456,PAYLOAD,2023-06-15 09:47:31,15.69911195,0.0003339,69.9977,179.1821,273.9689,86.1125,4.8155e-05,5.578e-05,0.0,0 STARLINK-5456,1 55667U 23021AR  23166.40799849  .00005578  00000-0  48155-4 0  9997,2 55667  69.9977 179.1821 0003339 273.9689  86.1125 15.69911195 19313,6737.288,91.725,361.403,356.903,0.0
55667.0,STARLINK-5456,PAYLOAD,2023-06-16 10:15:32,15.69928355,0.0003572,69.997,176.3143,273.2074,86.8713,1.1244e-05,1.14e-05,0.0,0 STARLINK-5456,1 55667U 23021AR  23167.42745908  .00001140  00000-0  11244-4 0  9997,2 55667  69.9970 176.3143 0003572 273.2074  86.8713 15.69928355 19161,6737.239,91.724,361.511,356.697,0.0
55667.0,STARLINK-5456,PAYLOAD,2023-06-16 17:54:19,15.69916193,0.0002979,69.9985,175.4212,275.772,84.3135,-5.7602e-06,-9.05e-06,0.0,0 STARLINK-5456,1 55667U 23021AR  23167.74605703 -.00000905  00000-0 -57602-5 0  9999,2 55667  69.9985 175.4212 0002979 275.7720  84.3135 15.69916193 19527,6737.274,91.725,361.146,357.132,0.0
55667.0,STARLINK-5456,PAYLOAD,2023-06-17 00:01:19,15.69919021,0.0003043,69.9981,174.7041,275.198,84.8868,-2.1189e-06,-4.67e-06,0.0,0 STARLINK-5456,1 55667U 23021AR  23168.00092171 -.00000467  00000-0 -21189-5 0  9992,2 55667  69.9981 174.7041 0003043 275.1980  84.8868 15.69919021 19251,6737.266,91.724,361.181,357.081,0.0
55667.0,STARLINK-5456,PAYLOAD,2023-06-17 03:04:50,15.69913658,0.0003244,69.9982,174.3457,273.3736,86.7089,-8.0407e-06,-1.179e-05,0.0,0 STARLINK-5456,1 55667U 23021AR  23168.12835969 -.00001179  00000-0 -80407-5 0  9994,2 55667  69.9982 174.3457 0003244 273.3736  86.7089 15.69913658 19279,6737.281,91.725,361.332,356.96,0.0
55667.0,STARLINK-5456,PAYLOAD,2023-06-18 00:29:20,15.6993383,0.0003423,69.998,171.8373,271.3546,88.7258,8.7161e-06,8.36e-06,0.0,0 STARLINK-5456,1 55667U 23021AR  23169.02037808  .00000836  00000-0  87161-5 0  9991,2 55667  69.9980 171.8373 0003423 271.3546  88.7258 15.69933830 19412,6737.223,91.724,361.394,356.782,0.0
55667.0,STARLINK-5456,PAYLOAD,2023-06-18 09:39:50,15.69936961,0.0003773,69.9969,170.7608,269.6489,90.4274,1.3573e-05,1.42e-05,0.0,0 STARLINK-5456,1 55667U 23021AR  23169.40267310  .00001420  00000-0  13573-4 0  9991,2 55667  69.9969 170.7608 0003773 269.6489  90.4274 15.69936961 19788,6737.214,91.723,361.621,356.537,0.0
55667.0,STARLINK-5456,PAYLOAD,2023-06-18 17:18:37,15.6991753,0.0003163,69.9984,169.8657,270.4499,89.6334,1.1933e-05,1.222e-05,0.0,0 STARLINK-5456,1 55667U 23021AR  23169.72127053  .00001222  00000-0  11933-4 0  9993,2 55667  69.9984 169.8657 0003163 270.4499  89.6334 15.69917530 19522,6737.27,91.725,361.266,357.004,0.0
55667.0,STARLINK-5456,PAYLOAD,2023-06-19 10:07:54,15.69921124,0.0003397,69.9978,167.8953,266.5334,93.5473,1.9175e-05,2.093e-05,0.0,0 STARLINK-5456,1 55667U 23021AR  23170.42215289  .00002093  00000-0  19175-4 0  9994,2 55667  69.9978 167.8953 0003397 266.5334  93.5473 15.69921124 19943,6737.26,91.724,361.413,356.836,0.0
55667.0,STARLINK-5456,PAYLOAD,2023-06-19 22:21:55,15.69924502,0.0003204,69.9983,166.4625,265.8019,94.281,-1.6459e-06,-4.11e-06,0.0,0 STARLINK-5456,1 55667U 23021AR  23170.93188896 -.00000411  00000-0 -16459-5 0  9990,2 55667  69.9983 166.4625 0003204 265.8019  94.2810 15.69924502 19710,6737.25,91.724,361.274,356.956,0.0
55667.0,STARLINK-5456,PAYLOAD,2023-06-20 09:04:10,15.6993153,0.0003446,69.9979,165.2088,264.9176,95.1626,1.3746e-06,-4.8e-07,0.0,0 STARLINK-5456,1 55667U 23021AR  23171.37789942 -.00000048  00000-0  13746-5 0  9999,2 55667  69.9979 165.2088 0003446 264.9176  95.1626 15.69931530 19788,6737.23,91.724,361.417,356.773,0.0
55667.0,STARLINK-5456,PAYLOAD,2023-06-21 01:53:27,15.69917859,0.0003297,69.998,163.2381,264.3504,95.7315,7.4123e-06,6.78e-06,0.0,0 STARLINK-5456,1 55667U 23021AR  23172.07879186  .00000678  00000-0  74123-5 0  9991,2 55667  69.9980 163.2381 0003297 264.3504  95.7315 15.69917859 19898,6737.269,91.725,361.355,356.913,0.0
55667.0,STARLINK-5456,PAYLOAD,2023-06-21 09:32:12,15.69923878,0.0003703,69.9962,162.3399,274.8865,85.1908,1.4865e-05,1.575e-05,0.0,0 STARLINK-5456,1 55667U 23021AR  23172.39737001  .00001575  00000-0  14865-4 0  9998,2 55667  69.9962 162.3399 0003703 274.8865  85.1908 15.69923878 19940,6737.252,91.724,361.612,356.622,0.0
55667.0,STARLINK-5456,PAYLOAD,2023-06-22 08:28:30,15.69920042,0.0003121,69.9982,159.6547,261.2788,98.8055,-1.8107e-07,-2.34e-06,0.0,0 STARLINK-5456,1 55667U 23021AR  23173.35312743 -.00000234  00000-0 -18107-6 0  9995,2 55667  69.9982 159.6547 0003121 261.2788  98.8055 15.69920042 20096,6737.263,91.724,361.23,357.025,0.0
55667.0,STARLINK-5456,PAYLOAD,2023-06-23 08:56:32,15.69913665,0.0002937,69.9975,156.7895,265.0608,95.0253,-9.6733e-06,-1.375e-05,0.0,0 STARLINK-5456,1 55667U 23021AR  23174.37260173 -.00001375  00000-0 -96733-5 0  9994,2 55667  69.9975 156.7895 0002937 265.0608  95.0253 15.69913665 20259,6737.281,91.725,361.125,357.167,0.0
55667.0,STARLINK-5456,PAYLOAD,2023-06-24 01:45:48,15.69927283,0.0003585,69.9968,154.818,268.7724,91.3061,4.856e-06,3.71e-06,0.0,0 STARLINK-5456,1 55667U 23021AR  23175.07347402  .00000371  00000-0  48560-5 0  9991,2 55667  69.9968 154.8180 0003585 268.7724  91.3061 15.69927283 20365,6737.242,91.724,361.522,356.692,0.0
55667.0,STARLINK-5456,PAYLOAD,2023-06-25 02:13:50,15.69924647,0.00034,69.9991,151.9514,266.2618,93.8189,1.0604e-05,1.062e-05,0.0,0 STARLINK-5456,1 55667U 23021AR  23176.09294165  .00001062  00000-0  10604-4 0  9996,2 55667  69.9991 151.9514 0003400 266.2618  93.8189 15.69924647 20528,6737.25,91.724,361.405,356.824,0.0
55667.0,STARLINK-5456,PAYLOAD,2023-06-26 01:10:07,15.69920658,0.0003307,69.9978,149.2637,257.5999,102.4826,2.0633e-06,3.5e-07,0.0,0 STARLINK-5456,1 55667U 23021AR  23177.04869779  .00000035  00000-0  20633-5 0  9994,2 55667  69.9978 149.2637 0003307 257.5999 102.4826 15.69920658 20679,6737.261,91.724,361.354,356.898,0.0
55667.0,STARLINK-5456,PAYLOAD,2023-06-26 07:17:07,15.69928836,0.000352,69.9971,148.5483,261.4632,98.6165,1.3267e-05,1.383e-05,0.0,0 STARLINK-5456,1 55667U 23021AR  23177.30355857  .00001383  00000-0  13267-4 0  9991,2 55667  69.9971 148.5483 0003520 261.4632  98.6165 15.69928836 20711,6737.238,91.724,361.474,356.731,0.0
55667.0,STARLINK-5456,PAYLOAD,2023-06-27 07:45:09,15.69932274,0.0003556,69.9976,145.683,261.9747,98.1046,2.4793e-06,8.5e-07,0.0,0 STARLINK-5456,1 55667U 23021AR  23178.32302527  .00000085  00000-0  24793-5 0  9995,2 55667  69.9976 145.6830 0003556 261.9747  98.1046 15.69932274 20872,6737.228,91.724,361.489,356.697,0.0
55667.0,STARLINK-5456,PAYLOAD,2023-06-27 15:23:55,15.69924754,0.0003498,69.9959,144.7863,263.9101,96.1696,6.2796e-06,5.42e-06,0.0,0 STARLINK-5456,1 55667U 23021AR  23178.64161290  .00000542  00000-0  62796-5 0  9993,2 55667  69.9959 144.7863 0003498 263.9101  96.1696 15.69924754 20929,6737.249,91.724,361.471,356.758,0.0
55667.0,STARLINK-5456,PAYLOAD,2023-06-29 01:02:28,15.69917954,0.0003652,69.9975,140.8453,264.0073,96.0707,-5.3616e-06,-8.57e-06,0.0,0 STARLINK-5456,1 55667U 23021AR  23180.04338936 -.00000857  00000-0 -53616-5 0  9995,2 55667  69.9975 140.8453 0003652 264.0073  96.0707 15.69917954 21142,6737.269,91.725,361.594,356.673,0.0
55667.0,STARLINK-5456,PAYLOAD,2023-06-29 07:09:28,15.69923459,0.0003483,69.9983,140.1303,253.0737,107.0077,-1.6351e-06,-4.09e-06,0.0,0 STARLINK-5456,1 55667U 23021AR  23180.29825203 -.00000409  00000-0 -16351-5 0  9998,2 55667  69.9983 140.1303 0003483 253.0737 107.0077 15.69923459 21189,6737.253,91.724,361.465,356.771,0.0
